OBJECT_NAME,OBJECT_ID,EPOCH,MEAN_MOTION,ECCENTRICITY,INCLINATION,RA_OF_ASC_NODE,ARG_OF_PERICENTER,MEAN_ANOMALY,EPHEMERIS_TYPE,CLASSIFICATION_TYPE,NORAD_CAT_ID,ELEMENT_SET_NO,REV_AT_EPOCH,BSTAR,MEAN_MOTION_DOT,MEAN_MOTION_DDOT
STARLINK-32934,2025-048T,2026-07-18T15:34:11.524800,15.27582697,.0001013,42.9978,65.4703,276.8232,83.2504,0,U,63200,999,7712,.26936154E-3,.7158E-4,0
STARLINK-32938,2025-048U,2026-07-18T16:05:39.077088,15.27581560,.00011355,43.0020,65.6371,268.8400,91.2322,0,U,63201,999,7712,.32061655E-3,.8571E-4,0
STARLINK-32935,2025-048V,2026-07-18T00:55:32.199168,15.27582417,.0001953,43.0032,69.4944,238.8598,121.2062,0,U,63202,999,7702,.31375989E-3,.8382E-4,0
STARLINK-32930,2025-048W,2026-07-17T23:15:49.959936,15.27592769,.00007532,43.0035,69.8305,300.2422,59.8355,0,U,63203,999,7701,.40384104E-3,.10871E-3,0
QPS-SAR-9 (SUSANOO-I),2025-050A,2026-07-18T14:40:20.042112,15.03411449,.00048267,42.0196,288.5558,342.9582,17.1083,0,U,63205,999,7369,.15938783E-3,.2016E-4,0
SUPERVIEW NEO-3 02,2025-051A,2026-07-18T15:25:38.180928,15.22324956,.0002449,97.4504,278.5996,91.5869,268.5648,0,U,63208,999,7462,.1836385E-3,.4163E-4,0
TIANYAN 23,2025-051B,2026-07-18T15:04:04.716768,15.50557795,.00028942,97.4508,287.8934,344.6385,15.4778,0,U,63209,999,7523,.33738497E-3,.19208E-3,0
JINJUSAT-1B,2025-052A,2026-07-18T04:42:40.875552,15.34408905,.00028738,97.3959,96.0077,21.2527,338.8834,0,U,63210,999,7485,.27260689E-3,.9006E-4,0
NUSHSAT1,2025-052B,2026-07-18T06:04:02.992224,15.37116033,.00028321,97.3934,96.7426,33.3640,326.7783,0,U,63211,999,7491,.32895803E-3,.11875E-3,0
IOD-1,2025-052C,2026-07-18T05:43:17.692608,15.57307700,.00031431,97.3772,101.9384,107.5592,252.6007,0,U,63212,999,7531,.51778012E-3,.37815E-3,0
TEVEL2-4,2025-052D,2026-07-18T15:57:43.674912,15.35641020,.00032682,97.3855,96.1261,45.1827,314.9681,0,U,63213,999,7494,.30055382E-3,.10338E-3,0
TEVEL2-5,2025-052E,2026-07-18T05:35:39.518592,15.35444756,.00033154,97.3855,95.6318,47.1094,313.0428,0,U,63214,999,7487,.28934081E-3,.9887E-4,0
TEVEL2-6,2025-052F,2026-07-18T05:54:26.563392,15.35408471,.00033769,97.3858,95.6297,49.4265,310.7272,0,U,63215,999,7487,.30399083E-3,.1038E-3,0
BOTSAT-1,2025-052G,2026-07-18T16:06:15.382368,15.27631071,.00035613,97.3843,93.2126,51.6040,308.5519,0,U,63216,999,7476,.16007836E-3,.425E-4,0
TEVEL2-1,2025-052H,2026-07-18T05:18:28.836576,15.34835684,.0004044,97.3830,95.1910,53.7107,306.4510,0,U,63217,999,7485,.28401311E-3,.9517E-4,0
TEVEL2-3,2025-052J,2026-07-18T06:42:54.396000,15.34900151,.00037787,97.3839,95.2758,55.7421,304.4179,0,U,63218,999,7486,.296017E-3,.9943E-4,0
TEVEL2-2,2025-052K,2026-07-18T06:52:30.830016,15.34848337,.00040779,97.3833,95.2592,53.6322,306.5297,0,U,63219,999,7486,.28756579E-3,.9641E-4,0
AEROCUBE 18A,2025-052L,2026-07-17T22:35:10.932864,15.24774923,.00049127,97.3924,92.0241,39.1313,321.0280,0,U,63220,999,7458,.12929737E-3,.3133E-4,0
TRANSPORTER-13 OBJECT M,2025-052M,2026-07-18T05:40:45.804000,15.22123705,.00046879,97.3843,90.8328,53.1660,307.0005,0,U,63221,999,7456,.8263865E-4,.1825E-4,0
AEROCUBE 18B,2025-052N,2026-07-18T10:23:48.690816,15.24678902,.00054543,97.3931,92.4882,40.0553,320.1086,0,U,63222,999,7465,.12408289E-3,.2996E-4,0
DROID.002,2025-052P,2026-07-18T06:42:17.864352,15.23027382,.00051899,97.3892,91.6486,47.8488,312.3189,0,U,63223,999,7460,.1255911E-3,.2886E-4,0
TOMORROW-S6,2025-052R,2026-07-18T10:49:38.308512,15.22657989,.00063016,97.3969,91.8720,41.8716,318.3001,0,U,63225,999,7460,.10052109E-3,.2271E-4,0
ETIHAD-SAT,2025-052S,2026-07-18T06:06:17.592192,15.22306817,.0006423,97.3919,91.2762,48.8456,311.3334,0,U,63226,999,7456,.9106511E-4,.2029E-4,0
TRANSPORTER-13 OBJECT U,2025-052U,2026-07-18T14:49:05.196864,15.23885624,.00064324,97.3876,91.9112,53.4336,306.7493,0,U,63228,999,7465,.11710308E-3,.2757E-4,0
SPACEEYE-T1,2025-052V,2026-07-18T06:45:27.743040,15.22729846,.00062135,97.3908,91.3269,55.3111,304.8710,0,U,63229,999,7457,.10306435E-3,.2335E-4,0
ION SCV-017,2025-052W,2026-07-18T16:01:59.921760,15.28031461,.0020171,97.3867,94.5753,301.1541,58.7720,0,U,63230,999,7484,.7638658E-4,.2024E-4,0
M-SEL/CORTEZ,2025-052X,2026-07-18T06:36:10.239264,15.26588815,.0006369,97.3878,92.4732,55.5843,304.5997,0,U,63231,999,7466,.16455094E-3,.4235E-4,0
SPHINX/FRAZIER,2025-052Y,2026-07-18T15:33:10.026144,15.24288253,.00071343,97.3907,92.2190,52.3285,307.8598,0,U,63232,999,7466,.13556525E-3,.3242E-4,0
LIZZIESAT-3 (LS-3),2025-052Z,2026-07-18T06:13:51.380544,15.22011820,.00075462,97.3873,90.5509,62.2472,297.9529,0,U,63233,999,7453,.11116555E-3,.2471E-4,0
TOMORROW-S5,2025-052AA,2026-07-18T11:42:57.666816,15.22702378,.0008163,97.3946,91.6876,52.4534,307.7443,0,U,63234,999,7460,.99629102E-4,.2254E-4,0
