STARLINK-32934          
1 63200U 25048T   26199.64874450  .00007158  00000+0  26936-3 0  9994
2 63200  42.9978  65.4703 0001013 276.8232  83.2504 15.27582697 77123
STARLINK-32938          
1 63201U 25048U   26199.67059117  .00008571  00000+0  32062-3 0  9990
2 63201  43.0020  65.6371 0001135 268.8400  91.2322 15.27581560 77125
STARLINK-32935          
1 63202U 25048V   26199.03856712  .00008382  00000+0  31376-3 0  9994
2 63202  43.0032  69.4944 0001953 238.8598 121.2062 15.27582417 77026
STARLINK-32930          
1 63203U 25048W   26198.96932824  .00010871  00000+0  40384-3 0  9990
2 63203  43.0035  69.8305 0000753 300.2422  59.8355 15.27592769 77013
QPS-SAR-9 (SUSANOO-I)   
1 63205U 25050A   26199.61134308  .00002016  00000+0  15939-3 0  9999
2 63205  42.0196 288.5558 0004826 342.9582  17.1083 15.03411449 73691
SUPERVIEW NEO-3 02      
1 63208U 25051A   26199.64280302  .00004163  00000+0  18364-3 0  9992
2 63208  97.4504 278.5996 0002449  91.5869 268.5648 15.22324956 74620
TIANYAN 23              
1 63209U 25051B   26199.62783237  .00019208  00000+0  33738-3 0  9994
2 63209  97.4508 287.8934 0002894 344.6385  15.4778 15.50557795 75230
JINJUSAT-1B             
1 63210U 25052A   26199.19630643  .00009006  00000+0  27261-3 0  9990
2 63210  97.3959  96.0077 0002873  21.2527 338.8834 15.34408905 74854
NUSHSAT1                
1 63211U 25052B   26199.25281241  .00011875  00000+0  32896-3 0  9991
2 63211  97.3934  96.7426 0002832  33.3640 326.7783 15.37116033 74915
IOD-1                   
1 63212U 25052C   26199.23839922  .00037815  00000+0  51778-3 0  9997
2 63212  97.3772 101.9384 0003143 107.5592 252.6007 15.57307700 75310
TEVEL2-4                
1 63213U 25052D   26199.66508883  .00010338  00000+0  30055-3 0  9990
2 63213  97.3855  96.1261 0003268  45.1827 314.9681 15.35641020 74948
TEVEL2-5                
1 63214U 25052E   26199.23309628  .00009887  00000+0  28934-3 0  9990
2 63214  97.3855  95.6318 0003315  47.1094 313.0428 15.35444756 74875
TEVEL2-6                
1 63215U 25052F   26199.24614078  .00010380  00000+0  30399-3 0  9998
2 63215  97.3858  95.6297 0003376  49.4265 310.7272 15.35408471 74872
BOTSAT-1                
1 63216U 25052G   26199.67101137  .00004250  00000+0  16008-3 0  9993
2 63216  97.3843  93.2126 0003561  51.6040 308.5519 15.27631071 74766
TEVEL2-1                
1 63217U 25052H   26199.22116709  .00009517  00000+0  28401-3 0  9997
2 63217  97.3830  95.1910 0004044  53.7107 306.4510 15.34835684 74851
TEVEL2-3                
1 63218U 25052J   26199.27979625  .00009943  00000+0  29602-3 0  9994
2 63218  97.3839  95.2758 0003778  55.7421 304.4179 15.34900151 74868
TEVEL2-2                
1 63219U 25052K   26199.28646794  .00009641  00000+0  28757-3 0  9999
2 63219  97.3833  95.2592 0004077  53.6322 306.5297 15.34848337 74860
AEROCUBE 18A            
1 63220U 25052L   26198.94109876  .00003133  00000+0  12930-3 0  9994
2 63220  97.3924  92.0241 0004912  39.1313 321.0280 15.24774923 74587
TRANSPORTER-13 OBJECT M 
1 63221U 25052M   26199.23664125  .00001825  00000+0  82639-4 0  9991
2 63221  97.3843  90.8328 0004687  53.1660 307.0005 15.22123705 74561
AEROCUBE 18B            
1 63222U 25052N   26199.43320244  .00002996  00000+0  12408-3 0  9991
2 63222  97.3931  92.4882 0005454  40.0553 320.1086 15.24678902 74653
DROID.002               
1 63223U 25052P   26199.27937343  .00002886  00000+0  12559-3 0  9993
2 63223  97.3892  91.6486 0005189  47.8488 312.3189 15.23027382 74609
TOMORROW-S6             
1 63225U 25052R   26199.45113783  .00002271  00000+0  10052-3 0  9993
2 63225  97.3969  91.8720 0006301  41.8716 318.3001 15.22657989 74604
ETIHAD-SAT              
1 63226U 25052S   26199.25437028  .00002029  00000+0  91065-4 0  9998
2 63226  97.3919  91.2762 0006423  48.8456 311.3334 15.22306817 74561
TRANSPORTER-13 OBJECT U 
1 63228U 25052U   26199.61742126  .00002757  00000+0  11710-3 0  9994
2 63228  97.3876  91.9112 0006432  53.4336 306.7493 15.23885624 74653
SPACEEYE-T1             
1 63229U 25052V   26199.28157110  .00002335  00000+0  10306-3 0  9993
2 63229  97.3908  91.3269 0006213  55.3111 304.8710 15.22729846 74570
ION SCV-017             
1 63230U 25052W   26199.66805465  .00002024  00000+0  76387-4 0  9997
2 63230  97.3867  94.5753 0020171 301.1541  58.7720 15.28031461 74848
M-SEL/CORTEZ            
1 63231U 25052X   26199.27511851  .00004235  00000+0  16455-3 0  9993
2 63231  97.3878  92.4732 0006369  55.5843 304.5997 15.26588815 74669
SPHINX/FRAZIER          
1 63232U 25052Y   26199.64803271  .00003242  00000+0  13557-3 0  9992
2 63232  97.3907  92.2190 0007134  52.3285 307.8598 15.24288253 74669
LIZZIESAT-3 (LS-3)      
1 63233U 25052Z   26199.25962246  .00002471  00000+0  11117-3 0  9991
2 63233  97.3873  90.5509 0007546  62.2472 297.9529 15.22011820 74533
TOMORROW-S5             
1 63234U 25052AA  26199.48816744  .00002254  00000+0  99629-4 0  9992
2 63234  97.3946  91.6876 0008163  52.4534 307.7443 15.22702378 74608
